CCSDS_OMM_VERS = 2.0
CREATION_DATE  = 
ORIGINATOR     = 

OBJECT_NAME    = STARLINK-36623
OBJECT_ID      = 2026-020AD
CENTER_NAME    = EARTH
REF_FRAME      = TEME
TIME_SYSTEM    = UTC
MEAN_ELEMENT_THEORY = SGP/SGP4

EPOCH          = 2026-02-07T20:00:03.000384
MEAN_MOTION    = 15.90035802
ECCENTRICITY   = .0001711
INCLINATION    = 42.9993
RA_OF_ASC_NODE = 323.6347
ARG_OF_PERICENTER = 259.3799
MEAN_ANOMALY   = 107.8688

EPHEMERIS_TYPE = 0
CLASSIFICATION_TYPE = U
NORAD_CAT_ID   = 67644
ELEMENT_SET_NO = 999
REV_AT_EPOCH   = 259
BSTAR          = -.59669E-2
MEAN_MOTION_DOT = -.1629482E-1
MEAN_MOTION_DDOT = 0

CCSDS_OMM_VERS = 2.0
CREATION_DATE  = 
ORIGINATOR     = 

OBJECT_NAME    = STARLINK-36619
OBJECT_ID      = 2026-020AE
CENTER_NAME    = EARTH
REF_FRAME      = TEME
TIME_SYSTEM    = UTC
MEAN_ELEMENT_THEORY = SGP/SGP4

EPOCH          = 2026-02-07T20:00:03.000384
MEAN_MOTION    = 15.89860763
ECCENTRICITY   = .0001757
INCLINATION    = 42.9993
RA_OF_ASC_NODE = 323.6428
ARG_OF_PERICENTER = 259.8658
MEAN_ANOMALY   = 104.2490

EPHEMERIS_TYPE = 0
CLASSIFICATION_TYPE = U
NORAD_CAT_ID   = 67645
ELEMENT_SET_NO = 999
REV_AT_EPOCH   = 259
BSTAR          = -.60185E-2
MEAN_MOTION_DOT = -.1628927E-1
MEAN_MOTION_DDOT = 0

CCSDS_OMM_VERS = 2.0
CREATION_DATE  = 
ORIGINATOR     = 

OBJECT_NAME    = ALSAT-3B
OBJECT_ID      = 2026-021A
CENTER_NAME    = EARTH
REF_FRAME      = TEME
TIME_SYSTEM    = UTC
MEAN_ELEMENT_THEORY = SGP/SGP4

EPOCH          = 2026-02-07T19:56:10.052160
MEAN_MOTION    = 15.23493869
ECCENTRICITY   = .0011537
INCLINATION    = 97.4721
RA_OF_ASC_NODE = 113.2949
ARG_OF_PERICENTER = 236.6930
MEAN_ANOMALY   = 123.3203

EPHEMERIS_TYPE = 0
CLASSIFICATION_TYPE = U
NORAD_CAT_ID   = 67646
ELEMENT_SET_NO = 999
REV_AT_EPOCH   = 117
BSTAR          = .38143E-3
MEAN_MOTION_DOT = .9048E-4
MEAN_MOTION_DDOT = 0

CCSDS_OMM_VERS = 2.0
CREATION_DATE  = 
ORIGINATOR     = 

OBJECT_NAME    = CZ-2C R/B
OBJECT_ID      = 2026-021B
CENTER_NAME    = EARTH
REF_FRAME      = TEME
TIME_SYSTEM    = UTC
MEAN_ELEMENT_THEORY = SGP/SGP4

EPOCH          = 2026-02-07T19:59:12.535872
MEAN_MOTION    = 15.23257460
ECCENTRICITY   = .0154039
INCLINATION    = 97.6561
RA_OF_ASC_NODE = 113.6992
ARG_OF_PERICENTER = 114.9168
MEAN_ANOMALY   = 246.8166

EPHEMERIS_TYPE = 0
CLASSIFICATION_TYPE = U
NORAD_CAT_ID   = 67647
ELEMENT_SET_NO = 999
REV_AT_EPOCH   = 115
BSTAR          = .55247E-3
MEAN_MOTION_DOT = .18239E-3
MEAN_MOTION_DDOT = 0

CCSDS_OMM_VERS = 2.0
CREATION_DATE  = 
ORIGINATOR     = 

OBJECT_NAME    = STARLINK-36719
OBJECT_ID      = 2026-022A
CENTER_NAME    = EARTH
REF_FRAME      = TEME
TIME_SYSTEM    = UTC
MEAN_ELEMENT_THEORY = SGP/SGP4

EPOCH          = 2026-02-07T20:00:03.000384
MEAN_MOTION    = 16.00971588
ECCENTRICITY   = .0001459
INCLINATION    = 97.2832
RA_OF_ASC_NODE = 71.1700
ARG_OF_PERICENTER = 74.0604
MEAN_ANOMALY   = 79.8208

EPHEMERIS_TYPE = 0
CLASSIFICATION_TYPE = U
NORAD_CAT_ID   = 67648
ELEMENT_SET_NO = 999
REV_AT_EPOCH   = 209
BSTAR          = -.29743E-2
MEAN_MOTION_DOT = -.1580392E-1
MEAN_MOTION_DDOT = .7736E-3

CCSDS_OMM_VERS = 2.0
CREATION_DATE  = 
ORIGINATOR     = 

OBJECT_NAME    = STARLINK-36342
OBJECT_ID      = 2026-022B
CENTER_NAME    = EARTH
REF_FRAME      = TEME
TIME_SYSTEM    = UTC
MEAN_ELEMENT_THEORY = SGP/SGP4

EPOCH          = 2026-02-07T20:00:03.000384
MEAN_MOTION    = 16.01083042
ECCENTRICITY   = .0001428
INCLINATION    = 97.2830
RA_OF_ASC_NODE = 71.1705
ARG_OF_PERICENTER = 74.9073
MEAN_ANOMALY   = 80.2701

EPHEMERIS_TYPE = 0
CLASSIFICATION_TYPE = U
NORAD_CAT_ID   = 67649
ELEMENT_SET_NO = 999
REV_AT_EPOCH   = 209
BSTAR          = -.29175E-2
MEAN_MOTION_DOT = -.1560372E-1
MEAN_MOTION_DDOT = .75642E-3

CCSDS_OMM_VERS = 2.0
CREATION_DATE  = 
ORIGINATOR     = 

OBJECT_NAME    = STARLINK-36703
OBJECT_ID      = 2026-022C
CENTER_NAME    = EARTH
REF_FRAME      = TEME
TIME_SYSTEM    = UTC
MEAN_ELEMENT_THEORY = SGP/SGP4

EPOCH          = 2026-02-07T20:00:03.000384
MEAN_MOTION    = 16.01238820
ECCENTRICITY   = .0001444
INCLINATION    = 97.2829
RA_OF_ASC_NODE = 71.1712
ARG_OF_PERICENTER = 74.8654
MEAN_ANOMALY   = 81.8723

EPHEMERIS_TYPE = 0
CLASSIFICATION_TYPE = U
NORAD_CAT_ID   = 67650
ELEMENT_SET_NO = 999
REV_AT_EPOCH   = 209
BSTAR          = -.28877E-2
MEAN_MOTION_DOT = -.1558303E-1
MEAN_MOTION_DDOT = .75591E-3

CCSDS_OMM_VERS = 2.0
CREATION_DATE  = 
ORIGINATOR     = 

OBJECT_NAME    = STARLINK-36696
OBJECT_ID      = 2026-022D
CENTER_NAME    = EARTH
REF_FRAME      = TEME
TIME_SYSTEM    = UTC
MEAN_ELEMENT_THEORY = SGP/SGP4

EPOCH          = 2026-02-07T20:00:03.000384
MEAN_MOTION    = 16.01404741
ECCENTRICITY   = .0001485
INCLINATION    = 97.2829
RA_OF_ASC_NODE = 71.1717
ARG_OF_PERICENTER = 72.4836
MEAN_ANOMALY   = 85.8748

EPHEMERIS_TYPE = 0
CLASSIFICATION_TYPE = U
NORAD_CAT_ID   = 67651
ELEMENT_SET_NO = 999
REV_AT_EPOCH   = 209
BSTAR          = -.28613E-2
MEAN_MOTION_DOT = -.1558843E-1
MEAN_MOTION_DDOT = .75785E-3

CCSDS_OMM_VERS = 2.0
CREATION_DATE  = 
ORIGINATOR     = 

OBJECT_NAME    = STARLINK-36699
OBJECT_ID      = 2026-022E
CENTER_NAME    = EARTH
REF_FRAME      = TEME
TIME_SYSTEM    = UTC
MEAN_ELEMENT_THEORY = SGP/SGP4

EPOCH          = 2026-02-07T20:00:03.000384
MEAN_MOTION    = 16.01539388
ECCENTRICITY   = .0001377
INCLINATION    = 97.2827
RA_OF_ASC_NODE = 71.1723
ARG_OF_PERICENTER = 80.9797
MEAN_ANOMALY   = 78.8085

EPHEMERIS_TYPE = 0
CLASSIFICATION_TYPE = U
NORAD_CAT_ID   = 67652
ELEMENT_SET_NO = 999
REV_AT_EPOCH   = 209
BSTAR          = -.28193E-2
MEAN_MOTION_DOT = -.1547992E-1
MEAN_MOTION_DDOT = .74922E-3

CCSDS_OMM_VERS = 2.0
CREATION_DATE  = 
ORIGINATOR     = 

OBJECT_NAME    = STARLINK-36694
OBJECT_ID      = 2026-022F
CENTER_NAME    = EARTH
REF_FRAME      = TEME
TIME_SYSTEM    = UTC
MEAN_ELEMENT_THEORY = SGP/SGP4

EPOCH          = 2026-02-07T20:00:03.000384
MEAN_MOTION    = 16.01723722
ECCENTRICITY   = .0001418
INCLINATION    = 97.2828
RA_OF_ASC_NODE = 71.1732
ARG_OF_PERICENTER = 82.6178
MEAN_ANOMALY   = 78.9151

EPHEMERIS_TYPE = 0
CLASSIFICATION_TYPE = U
NORAD_CAT_ID   = 67653
ELEMENT_SET_NO = 999
REV_AT_EPOCH   = 209
BSTAR          = -.27862E-2
MEAN_MOTION_DOT = -.1546244E-1
MEAN_MOTION_DDOT = .74924E-3

CCSDS_OMM_VERS = 2.0
CREATION_DATE  = 
ORIGINATOR     = 

OBJECT_NAME    = STARLINK-36620
OBJECT_ID      = 2026-022G
CENTER_NAME    = EARTH
REF_FRAME      = TEME
TIME_SYSTEM    = UTC
MEAN_ELEMENT_THEORY = SGP/SGP4

EPOCH          = 2026-02-07T20:00:03.000384
MEAN_MOTION    = 16.01880566
ECCENTRICITY   = .0001492
INCLINATION    = 97.2826
RA_OF_ASC_NODE = 71.1736
ARG_OF_PERICENTER = 75.0483
MEAN_ANOMALY   = 88.0455

EPHEMERIS_TYPE = 0
CLASSIFICATION_TYPE = U
NORAD_CAT_ID   = 67654
ELEMENT_SET_NO = 999
REV_AT_EPOCH   = 209
BSTAR          = -.27593E-2
MEAN_MOTION_DOT = -.1545297E-1
MEAN_MOTION_DDOT = .74975E-3

CCSDS_OMM_VERS = 2.0
CREATION_DATE  = 
ORIGINATOR     = 

OBJECT_NAME    = STARLINK-36720
OBJECT_ID      = 2026-022H
CENTER_NAME    = EARTH
REF_FRAME      = TEME
TIME_SYSTEM    = UTC
MEAN_ELEMENT_THEORY = SGP/SGP4

EPOCH          = 2026-02-07T20:00:03.000384
MEAN_MOTION    = 16.02061938
ECCENTRICITY   = .0001352
INCLINATION    = 97.2827
RA_OF_ASC_NODE = 71.1745
ARG_OF_PERICENTER = 80.9857
MEAN_ANOMALY   = 83.8711

EPHEMERIS_TYPE = 0
CLASSIFICATION_TYPE = U
NORAD_CAT_ID   = 67655
ELEMENT_SET_NO = 999
REV_AT_EPOCH   = 209
BSTAR          = -.27119E-2
MEAN_MOTION_DOT = -.1534849E-1
MEAN_MOTION_DDOT = .74191E-3

