STARLINK-36623          
1 67644U 26020AD  26038.83336806 -.01629482  00000+0 -59669-2 0  9993
2 67644  42.9993 323.6347 0001711 259.3799 107.8688 15.90035802  2594
STARLINK-36619          
1 67645U 26020AE  26038.83336806 -.01628927  00000+0 -60185-2 0  9992
2 67645  42.9993 323.6428 0001757 259.8658 104.2490 15.89860763  2596
ALSAT-3B                
1 67646U 26021A   26038.83067190  .00009048  00000+0  38143-3 0  9995
2 67646  97.4721 113.2949 0011537 236.6930 123.3203 15.23493869  1179
CZ-2C R/B               
1 67647U 26021B   26038.83278398  .00018239  00000+0  55247-3 0  9996
2 67647  97.6561 113.6992 0154039 114.9168 246.8166 15.23257460  1154
STARLINK-36719          
1 67648U 26022A   26038.83336806 -.01580392  77360-3 -29743-2 0  9992
2 67648  97.2832  71.1700 0001459  74.0604  79.8208 16.00971588  2090
STARLINK-36342          
1 67649U 26022B   26038.83336806 -.01560372  75642-3 -29175-2 0  9999
2 67649  97.2830  71.1705 0001428  74.9073  80.2701 16.01083042  2093
STARLINK-36703          
1 67650U 26022C   26038.83336806 -.01558303  75591-3 -28877-2 0  9993
2 67650  97.2829  71.1712 0001444  74.8654  81.8723 16.01238820  2090
STARLINK-36696          
1 67651U 26022D   26038.83336806 -.01558843  75785-3 -28613-2 0  9996
2 67651  97.2829  71.1717 0001485  72.4836  85.8748 16.01404741  2095
STARLINK-36699          
1 67652U 26022E   26038.83336806 -.01547992  74922-3 -28193-2 0  9995
2 67652  97.2827  71.1723 0001377  80.9797  78.8085 16.01539388  2093
STARLINK-36694          
1 67653U 26022F   26038.83336806 -.01546244  74924-3 -27862-2 0  9999
2 67653  97.2828  71.1732 0001418  82.6178  78.9151 16.01723722  2095
STARLINK-36620          
1 67654U 26022G   26038.83336806 -.01545297  74975-3 -27593-2 0  9994
2 67654  97.2826  71.1736 0001492  75.0483  88.0455 16.01880566  2094
STARLINK-36720          
1 67655U 26022H   26038.83336806 -.01534849  74191-3 -27119-2 0  9990
2 67655  97.2827  71.1745 0001352  80.9857  83.8711 16.02061938  2094
